{
  "norad_id": 54033,
  "name": "ANGOSAT 2",
  "history": [
    {
      "epoch": "2026-03-26T18:24:00.141120Z",
      "apogee_km": 35788.26826860038,
      "perigee_km": 35786.025075509024,
      "latitude_deg": -0.031024021544034046,
      "longitude_deg": 22.996732589616744,
      "height_km": 35785.60365655169,
      "semi_major_axis_km": 42165.283672054706,
      "eccentricity": 2.66e-05,
      "inclination_deg": 0.018,
      "raan_deg": 177.0476,
      "arg_perigee_deg": 284.3154,
      "mean_anomaly_deg": 21.8233,
      "mean_motion_rev_day": 1.00269817
    }
  ]
}